{"type":"FeatureCollection","features":[{"type":"Feature","properties":{"grid_id":"equator","atlas_label":"rovn\u00edk","kind":"equator"},"geometry":{"type":"LineString","coordinates":[[-180,0],[-178,0],[-176,0],[-174,0],[-172,0],[-170,0],[-168,0],[-166,0],[-164,0],[-162,0],[-160,0],[-158,0],[-156,0],[-154,0],[-152,0],[-150,0],[-148,0],[-146,0],[-144,0],[-142,0],[-140,0],[-138,0],[-136,0],[-134,0],[-132,0],[-130,0],[-128,0],[-126,0],[-124,0],[-122,0],[-120,0],[-118,0],[-116,0],[-114,0],[-112,0],[-110,0],[-108,0],[-106,0],[-104,0],[-102,0],[-100,0],[-98,0],[-96,0],[-94,0],[-92,0],[-90,0],[-88,0],[-86,0],[-84,0],[-82,0],[-80,0],[-78,0],[-76,0],[-74,0],[-72,0],[-70,0],[-68,0],[-66,0],[-64,0],[-62,0],[-60,0],[-58,0],[-56,0],[-54,0],[-52,0],[-50,0],[-48,0],[-46,0],[-44,0],[-42,0],[-40,0],[-38,0],[-36,0],[-34,0],[-32,0],[-30,0],[-28,0],[-26,0],[-24,0],[-22,0],[-20,0],[-18,0],[-16,0],[-14,0],[-12,0],[-10,0],[-8,0],[-6,0],[-4,0],[-2,0],[0,0],[2,0],[4,0],[6,0],[8,0],[10,0],[12,0],[14,0],[16,0],[18,0],[20,0],[22,0],[24,0],[26,0],[28,0],[30,0],[32,0],[34,0],[36,0],[38,0],[40,0],[42,0],[44,0],[46,0],[48,0],[50,0],[52,0],[54,0],[56,0],[58,0],[60,0],[62,0],[64,0],[66,0],[68,0],[70,0],[72,0],[74,0],[76,0],[78,0],[80,0],[82,0],[84,0],[86,0],[88,0],[90,0],[92,0],[94,0],[96,0],[98,0],[100,0],[102,0],[104,0],[106,0],[108,0],[110,0],[112,0],[114,0],[116,0],[118,0],[120,0],[122,0],[124,0],[126,0],[128,0],[130,0],[132,0],[134,0],[136,0],[138,0],[140,0],[142,0],[144,0],[146,0],[148,0],[150,0],[152,0],[154,0],[156,0],[158,0],[160,0],[162,0],[164,0],[166,0],[168,0],[170,0],[172,0],[174,0],[176,0],[178,0],[180,0]]}},{"type":"Feature","properties":{"grid_id":"tropic-cancer","atlas_label":"obratn\u00edk Raka","kind":"tropic"},"geometry":{"type":"LineString","coordinates":[[-180,23.4367],[-178,23.4367],[-176,23.4367],[-174,23.4367],[-172,23.4367],[-170,23.4367],[-168,23.4367],[-166,23.4367],[-164,23.4367],[-162,23.4367],[-160,23.4367],[-158,23.4367],[-156,23.4367],[-154,23.4367],[-152,23.4367],[-150,23.4367],[-148,23.4367],[-146,23.4367],[-144,23.4367],[-142,23.4367],[-140,23.4367],[-138,23.4367],[-136,23.4367],[-134,23.4367],[-132,23.4367],[-130,23.4367],[-128,23.4367],[-126,23.4367],[-124,23.4367],[-122,23.4367],[-120,23.4367],[-118,23.4367],[-116,23.4367],[-114,23.4367],[-112,23.4367],[-110,23.4367],[-108,23.4367],[-106,23.4367],[-104,23.4367],[-102,23.4367],[-100,23.4367],[-98,23.4367],[-96,23.4367],[-94,23.4367],[-92,23.4367],[-90,23.4367],[-88,23.4367],[-86,23.4367],[-84,23.4367],[-82,23.4367],[-80,23.4367],[-78,23.4367],[-76,23.4367],[-74,23.4367],[-72,23.4367],[-70,23.4367],[-68,23.4367],[-66,23.4367],[-64,23.4367],[-62,23.4367],[-60,23.4367],[-58,23.4367],[-56,23.4367],[-54,23.4367],[-52,23.4367],[-50,23.4367],[-48,23.4367],[-46,23.4367],[-44,23.4367],[-42,23.4367],[-40,23.4367],[-38,23.4367],[-36,23.4367],[-34,23.4367],[-32,23.4367],[-30,23.4367],[-28,23.4367],[-26,23.4367],[-24,23.4367],[-22,23.4367],[-20,23.4367],[-18,23.4367],[-16,23.4367],[-14,23.4367],[-12,23.4367],[-10,23.4367],[-8,23.4367],[-6,23.4367],[-4,23.4367],[-2,23.4367],[0,23.4367],[2,23.4367],[4,23.4367],[6,23.4367],[8,23.4367],[10,23.4367],[12,23.4367],[14,23.4367],[16,23.4367],[18,23.4367],[20,23.4367],[22,23.4367],[24,23.4367],[26,23.4367],[28,23.4367],[30,23.4367],[32,23.4367],[34,23.4367],[36,23.4367],[38,23.4367],[40,23.4367],[42,23.4367],[44,23.4367],[46,23.4367],[48,23.4367],[50,23.4367],[52,23.4367],[54,23.4367],[56,23.4367],[58,23.4367],[60,23.4367],[62,23.4367],[64,23.4367],[66,23.4367],[68,23.4367],[70,23.4367],[72,23.4367],[74,23.4367],[76,23.4367],[78,23.4367],[80,23.4367],[82,23.4367],[84,23.4367],[86,23.4367],[88,23.4367],[90,23.4367],[92,23.4367],[94,23.4367],[96,23.4367],[98,23.4367],[100,23.4367],[102,23.4367],[104,23.4367],[106,23.4367],[108,23.4367],[110,23.4367],[112,23.4367],[114,23.4367],[116,23.4367],[118,23.4367],[120,23.4367],[122,23.4367],[124,23.4367],[126,23.4367],[128,23.4367],[130,23.4367],[132,23.4367],[134,23.4367],[136,23.4367],[138,23.4367],[140,23.4367],[142,23.4367],[144,23.4367],[146,23.4367],[148,23.4367],[150,23.4367],[152,23.4367],[154,23.4367],[156,23.4367],[158,23.4367],[160,23.4367],[162,23.4367],[164,23.4367],[166,23.4367],[168,23.4367],[170,23.4367],[172,23.4367],[174,23.4367],[176,23.4367],[178,23.4367],[180,23.4367]]}},{"type":"Feature","properties":{"grid_id":"tropic-capricorn","atlas_label":"obratn\u00edk Kozoroha","kind":"tropic"},"geometry":{"type":"LineString","coordinates":[[-180,-23.4367],[-178,-23.4367],[-176,-23.4367],[-174,-23.4367],[-172,-23.4367],[-170,-23.4367],[-168,-23.4367],[-166,-23.4367],[-164,-23.4367],[-162,-23.4367],[-160,-23.4367],[-158,-23.4367],[-156,-23.4367],[-154,-23.4367],[-152,-23.4367],[-150,-23.4367],[-148,-23.4367],[-146,-23.4367],[-144,-23.4367],[-142,-23.4367],[-140,-23.4367],[-138,-23.4367],[-136,-23.4367],[-134,-23.4367],[-132,-23.4367],[-130,-23.4367],[-128,-23.4367],[-126,-23.4367],[-124,-23.4367],[-122,-23.4367],[-120,-23.4367],[-118,-23.4367],[-116,-23.4367],[-114,-23.4367],[-112,-23.4367],[-110,-23.4367],[-108,-23.4367],[-106,-23.4367],[-104,-23.4367],[-102,-23.4367],[-100,-23.4367],[-98,-23.4367],[-96,-23.4367],[-94,-23.4367],[-92,-23.4367],[-90,-23.4367],[-88,-23.4367],[-86,-23.4367],[-84,-23.4367],[-82,-23.4367],[-80,-23.4367],[-78,-23.4367],[-76,-23.4367],[-74,-23.4367],[-72,-23.4367],[-70,-23.4367],[-68,-23.4367],[-66,-23.4367],[-64,-23.4367],[-62,-23.4367],[-60,-23.4367],[-58,-23.4367],[-56,-23.4367],[-54,-23.4367],[-52,-23.4367],[-50,-23.4367],[-48,-23.4367],[-46,-23.4367],[-44,-23.4367],[-42,-23.4367],[-40,-23.4367],[-38,-23.4367],[-36,-23.4367],[-34,-23.4367],[-32,-23.4367],[-30,-23.4367],[-28,-23.4367],[-26,-23.4367],[-24,-23.4367],[-22,-23.4367],[-20,-23.4367],[-18,-23.4367],[-16,-23.4367],[-14,-23.4367],[-12,-23.4367],[-10,-23.4367],[-8,-23.4367],[-6,-23.4367],[-4,-23.4367],[-2,-23.4367],[0,-23.4367],[2,-23.4367],[4,-23.4367],[6,-23.4367],[8,-23.4367],[10,-23.4367],[12,-23.4367],[14,-23.4367],[16,-23.4367],[18,-23.4367],[20,-23.4367],[22,-23.4367],[24,-23.4367],[26,-23.4367],[28,-23.4367],[30,-23.4367],[32,-23.4367],[34,-23.4367],[36,-23.4367],[38,-23.4367],[40,-23.4367],[42,-23.4367],[44,-23.4367],[46,-23.4367],[48,-23.4367],[50,-23.4367],[52,-23.4367],[54,-23.4367],[56,-23.4367],[58,-23.4367],[60,-23.4367],[62,-23.4367],[64,-23.4367],[66,-23.4367],[68,-23.4367],[70,-23.4367],[72,-23.4367],[74,-23.4367],[76,-23.4367],[78,-23.4367],[80,-23.4367],[82,-23.4367],[84,-23.4367],[86,-23.4367],[88,-23.4367],[90,-23.4367],[92,-23.4367],[94,-23.4367],[96,-23.4367],[98,-23.4367],[100,-23.4367],[102,-23.4367],[104,-23.4367],[106,-23.4367],[108,-23.4367],[110,-23.4367],[112,-23.4367],[114,-23.4367],[116,-23.4367],[118,-23.4367],[120,-23.4367],[122,-23.4367],[124,-23.4367],[126,-23.4367],[128,-23.4367],[130,-23.4367],[132,-23.4367],[134,-23.4367],[136,-23.4367],[138,-23.4367],[140,-23.4367],[142,-23.4367],[144,-23.4367],[146,-23.4367],[148,-23.4367],[150,-23.4367],[152,-23.4367],[154,-23.4367],[156,-23.4367],[158,-23.4367],[160,-23.4367],[162,-23.4367],[164,-23.4367],[166,-23.4367],[168,-23.4367],[170,-23.4367],[172,-23.4367],[174,-23.4367],[176,-23.4367],[178,-23.4367],[180,-23.4367]]}},{"type":"Feature","properties":{"grid_id":"arctic-circle","atlas_label":"severn\u00ed pol\u00e1rn\u00ed kruh","kind":"polar"},"geometry":{"type":"LineString","coordinates":[[-180,66.5633],[-178,66.5633],[-176,66.5633],[-174,66.5633],[-172,66.5633],[-170,66.5633],[-168,66.5633],[-166,66.5633],[-164,66.5633],[-162,66.5633],[-160,66.5633],[-158,66.5633],[-156,66.5633],[-154,66.5633],[-152,66.5633],[-150,66.5633],[-148,66.5633],[-146,66.5633],[-144,66.5633],[-142,66.5633],[-140,66.5633],[-138,66.5633],[-136,66.5633],[-134,66.5633],[-132,66.5633],[-130,66.5633],[-128,66.5633],[-126,66.5633],[-124,66.5633],[-122,66.5633],[-120,66.5633],[-118,66.5633],[-116,66.5633],[-114,66.5633],[-112,66.5633],[-110,66.5633],[-108,66.5633],[-106,66.5633],[-104,66.5633],[-102,66.5633],[-100,66.5633],[-98,66.5633],[-96,66.5633],[-94,66.5633],[-92,66.5633],[-90,66.5633],[-88,66.5633],[-86,66.5633],[-84,66.5633],[-82,66.5633],[-80,66.5633],[-78,66.5633],[-76,66.5633],[-74,66.5633],[-72,66.5633],[-70,66.5633],[-68,66.5633],[-66,66.5633],[-64,66.5633],[-62,66.5633],[-60,66.5633],[-58,66.5633],[-56,66.5633],[-54,66.5633],[-52,66.5633],[-50,66.5633],[-48,66.5633],[-46,66.5633],[-44,66.5633],[-42,66.5633],[-40,66.5633],[-38,66.5633],[-36,66.5633],[-34,66.5633],[-32,66.5633],[-30,66.5633],[-28,66.5633],[-26,66.5633],[-24,66.5633],[-22,66.5633],[-20,66.5633],[-18,66.5633],[-16,66.5633],[-14,66.5633],[-12,66.5633],[-10,66.5633],[-8,66.5633],[-6,66.5633],[-4,66.5633],[-2,66.5633],[0,66.5633],[2,66.5633],[4,66.5633],[6,66.5633],[8,66.5633],[10,66.5633],[12,66.5633],[14,66.5633],[16,66.5633],[18,66.5633],[20,66.5633],[22,66.5633],[24,66.5633],[26,66.5633],[28,66.5633],[30,66.5633],[32,66.5633],[34,66.5633],[36,66.5633],[38,66.5633],[40,66.5633],[42,66.5633],[44,66.5633],[46,66.5633],[48,66.5633],[50,66.5633],[52,66.5633],[54,66.5633],[56,66.5633],[58,66.5633],[60,66.5633],[62,66.5633],[64,66.5633],[66,66.5633],[68,66.5633],[70,66.5633],[72,66.5633],[74,66.5633],[76,66.5633],[78,66.5633],[80,66.5633],[82,66.5633],[84,66.5633],[86,66.5633],[88,66.5633],[90,66.5633],[92,66.5633],[94,66.5633],[96,66.5633],[98,66.5633],[100,66.5633],[102,66.5633],[104,66.5633],[106,66.5633],[108,66.5633],[110,66.5633],[112,66.5633],[114,66.5633],[116,66.5633],[118,66.5633],[120,66.5633],[122,66.5633],[124,66.5633],[126,66.5633],[128,66.5633],[130,66.5633],[132,66.5633],[134,66.5633],[136,66.5633],[138,66.5633],[140,66.5633],[142,66.5633],[144,66.5633],[146,66.5633],[148,66.5633],[150,66.5633],[152,66.5633],[154,66.5633],[156,66.5633],[158,66.5633],[160,66.5633],[162,66.5633],[164,66.5633],[166,66.5633],[168,66.5633],[170,66.5633],[172,66.5633],[174,66.5633],[176,66.5633],[178,66.5633],[180,66.5633]]}},{"type":"Feature","properties":{"grid_id":"antarctic-circle","atlas_label":"ji\u017en\u00ed pol\u00e1rn\u00ed kruh","kind":"polar"},"geometry":{"type":"LineString","coordinates":[[-180,-66.5633],[-178,-66.5633],[-176,-66.5633],[-174,-66.5633],[-172,-66.5633],[-170,-66.5633],[-168,-66.5633],[-166,-66.5633],[-164,-66.5633],[-162,-66.5633],[-160,-66.5633],[-158,-66.5633],[-156,-66.5633],[-154,-66.5633],[-152,-66.5633],[-150,-66.5633],[-148,-66.5633],[-146,-66.5633],[-144,-66.5633],[-142,-66.5633],[-140,-66.5633],[-138,-66.5633],[-136,-66.5633],[-134,-66.5633],[-132,-66.5633],[-130,-66.5633],[-128,-66.5633],[-126,-66.5633],[-124,-66.5633],[-122,-66.5633],[-120,-66.5633],[-118,-66.5633],[-116,-66.5633],[-114,-66.5633],[-112,-66.5633],[-110,-66.5633],[-108,-66.5633],[-106,-66.5633],[-104,-66.5633],[-102,-66.5633],[-100,-66.5633],[-98,-66.5633],[-96,-66.5633],[-94,-66.5633],[-92,-66.5633],[-90,-66.5633],[-88,-66.5633],[-86,-66.5633],[-84,-66.5633],[-82,-66.5633],[-80,-66.5633],[-78,-66.5633],[-76,-66.5633],[-74,-66.5633],[-72,-66.5633],[-70,-66.5633],[-68,-66.5633],[-66,-66.5633],[-64,-66.5633],[-62,-66.5633],[-60,-66.5633],[-58,-66.5633],[-56,-66.5633],[-54,-66.5633],[-52,-66.5633],[-50,-66.5633],[-48,-66.5633],[-46,-66.5633],[-44,-66.5633],[-42,-66.5633],[-40,-66.5633],[-38,-66.5633],[-36,-66.5633],[-34,-66.5633],[-32,-66.5633],[-30,-66.5633],[-28,-66.5633],[-26,-66.5633],[-24,-66.5633],[-22,-66.5633],[-20,-66.5633],[-18,-66.5633],[-16,-66.5633],[-14,-66.5633],[-12,-66.5633],[-10,-66.5633],[-8,-66.5633],[-6,-66.5633],[-4,-66.5633],[-2,-66.5633],[0,-66.5633],[2,-66.5633],[4,-66.5633],[6,-66.5633],[8,-66.5633],[10,-66.5633],[12,-66.5633],[14,-66.5633],[16,-66.5633],[18,-66.5633],[20,-66.5633],[22,-66.5633],[24,-66.5633],[26,-66.5633],[28,-66.5633],[30,-66.5633],[32,-66.5633],[34,-66.5633],[36,-66.5633],[38,-66.5633],[40,-66.5633],[42,-66.5633],[44,-66.5633],[46,-66.5633],[48,-66.5633],[50,-66.5633],[52,-66.5633],[54,-66.5633],[56,-66.5633],[58,-66.5633],[60,-66.5633],[62,-66.5633],[64,-66.5633],[66,-66.5633],[68,-66.5633],[70,-66.5633],[72,-66.5633],[74,-66.5633],[76,-66.5633],[78,-66.5633],[80,-66.5633],[82,-66.5633],[84,-66.5633],[86,-66.5633],[88,-66.5633],[90,-66.5633],[92,-66.5633],[94,-66.5633],[96,-66.5633],[98,-66.5633],[100,-66.5633],[102,-66.5633],[104,-66.5633],[106,-66.5633],[108,-66.5633],[110,-66.5633],[112,-66.5633],[114,-66.5633],[116,-66.5633],[118,-66.5633],[120,-66.5633],[122,-66.5633],[124,-66.5633],[126,-66.5633],[128,-66.5633],[130,-66.5633],[132,-66.5633],[134,-66.5633],[136,-66.5633],[138,-66.5633],[140,-66.5633],[142,-66.5633],[144,-66.5633],[146,-66.5633],[148,-66.5633],[150,-66.5633],[152,-66.5633],[154,-66.5633],[156,-66.5633],[158,-66.5633],[160,-66.5633],[162,-66.5633],[164,-66.5633],[166,-66.5633],[168,-66.5633],[170,-66.5633],[172,-66.5633],[174,-66.5633],[176,-66.5633],[178,-66.5633],[180,-66.5633]]}},{"type":"Feature","properties":{"grid_id":"parallel--60","atlas_label":"60\u00b0 j. \u0161.","kind":"parallel"},"geometry":{"type":"LineString","coordinates":[[-180,-60],[-178,-60],[-176,-60],[-174,-60],[-172,-60],[-170,-60],[-168,-60],[-166,-60],[-164,-60],[-162,-60],[-160,-60],[-158,-60],[-156,-60],[-154,-60],[-152,-60],[-150,-60],[-148,-60],[-146,-60],[-144,-60],[-142,-60],[-140,-60],[-138,-60],[-136,-60],[-134,-60],[-132,-60],[-130,-60],[-128,-60],[-126,-60],[-124,-60],[-122,-60],[-120,-60],[-118,-60],[-116,-60],[-114,-60],[-112,-60],[-110,-60],[-108,-60],[-106,-60],[-104,-60],[-102,-60],[-100,-60],[-98,-60],[-96,-60],[-94,-60],[-92,-60],[-90,-60],[-88,-60],[-86,-60],[-84,-60],[-82,-60],[-80,-60],[-78,-60],[-76,-60],[-74,-60],[-72,-60],[-70,-60],[-68,-60],[-66,-60],[-64,-60],[-62,-60],[-60,-60],[-58,-60],[-56,-60],[-54,-60],[-52,-60],[-50,-60],[-48,-60],[-46,-60],[-44,-60],[-42,-60],[-40,-60],[-38,-60],[-36,-60],[-34,-60],[-32,-60],[-30,-60],[-28,-60],[-26,-60],[-24,-60],[-22,-60],[-20,-60],[-18,-60],[-16,-60],[-14,-60],[-12,-60],[-10,-60],[-8,-60],[-6,-60],[-4,-60],[-2,-60],[0,-60],[2,-60],[4,-60],[6,-60],[8,-60],[10,-60],[12,-60],[14,-60],[16,-60],[18,-60],[20,-60],[22,-60],[24,-60],[26,-60],[28,-60],[30,-60],[32,-60],[34,-60],[36,-60],[38,-60],[40,-60],[42,-60],[44,-60],[46,-60],[48,-60],[50,-60],[52,-60],[54,-60],[56,-60],[58,-60],[60,-60],[62,-60],[64,-60],[66,-60],[68,-60],[70,-60],[72,-60],[74,-60],[76,-60],[78,-60],[80,-60],[82,-60],[84,-60],[86,-60],[88,-60],[90,-60],[92,-60],[94,-60],[96,-60],[98,-60],[100,-60],[102,-60],[104,-60],[106,-60],[108,-60],[110,-60],[112,-60],[114,-60],[116,-60],[118,-60],[120,-60],[122,-60],[124,-60],[126,-60],[128,-60],[130,-60],[132,-60],[134,-60],[136,-60],[138,-60],[140,-60],[142,-60],[144,-60],[146,-60],[148,-60],[150,-60],[152,-60],[154,-60],[156,-60],[158,-60],[160,-60],[162,-60],[164,-60],[166,-60],[168,-60],[170,-60],[172,-60],[174,-60],[176,-60],[178,-60],[180,-60]]}},{"type":"Feature","properties":{"grid_id":"parallel--45","atlas_label":"45\u00b0 j. \u0161.","kind":"parallel"},"geometry":{"type":"LineString","coordinates":[[-180,-45],[-178,-45],[-176,-45],[-174,-45],[-172,-45],[-170,-45],[-168,-45],[-166,-45],[-164,-45],[-162,-45],[-160,-45],[-158,-45],[-156,-45],[-154,-45],[-152,-45],[-150,-45],[-148,-45],[-146,-45],[-144,-45],[-142,-45],[-140,-45],[-138,-45],[-136,-45],[-134,-45],[-132,-45],[-130,-45],[-128,-45],[-126,-45],[-124,-45],[-122,-45],[-120,-45],[-118,-45],[-116,-45],[-114,-45],[-112,-45],[-110,-45],[-108,-45],[-106,-45],[-104,-45],[-102,-45],[-100,-45],[-98,-45],[-96,-45],[-94,-45],[-92,-45],[-90,-45],[-88,-45],[-86,-45],[-84,-45],[-82,-45],[-80,-45],[-78,-45],[-76,-45],[-74,-45],[-72,-45],[-70,-45],[-68,-45],[-66,-45],[-64,-45],[-62,-45],[-60,-45],[-58,-45],[-56,-45],[-54,-45],[-52,-45],[-50,-45],[-48,-45],[-46,-45],[-44,-45],[-42,-45],[-40,-45],[-38,-45],[-36,-45],[-34,-45],[-32,-45],[-30,-45],[-28,-45],[-26,-45],[-24,-45],[-22,-45],[-20,-45],[-18,-45],[-16,-45],[-14,-45],[-12,-45],[-10,-45],[-8,-45],[-6,-45],[-4,-45],[-2,-45],[0,-45],[2,-45],[4,-45],[6,-45],[8,-45],[10,-45],[12,-45],[14,-45],[16,-45],[18,-45],[20,-45],[22,-45],[24,-45],[26,-45],[28,-45],[30,-45],[32,-45],[34,-45],[36,-45],[38,-45],[40,-45],[42,-45],[44,-45],[46,-45],[48,-45],[50,-45],[52,-45],[54,-45],[56,-45],[58,-45],[60,-45],[62,-45],[64,-45],[66,-45],[68,-45],[70,-45],[72,-45],[74,-45],[76,-45],[78,-45],[80,-45],[82,-45],[84,-45],[86,-45],[88,-45],[90,-45],[92,-45],[94,-45],[96,-45],[98,-45],[100,-45],[102,-45],[104,-45],[106,-45],[108,-45],[110,-45],[112,-45],[114,-45],[116,-45],[118,-45],[120,-45],[122,-45],[124,-45],[126,-45],[128,-45],[130,-45],[132,-45],[134,-45],[136,-45],[138,-45],[140,-45],[142,-45],[144,-45],[146,-45],[148,-45],[150,-45],[152,-45],[154,-45],[156,-45],[158,-45],[160,-45],[162,-45],[164,-45],[166,-45],[168,-45],[170,-45],[172,-45],[174,-45],[176,-45],[178,-45],[180,-45]]}},{"type":"Feature","properties":{"grid_id":"parallel--30","atlas_label":"30\u00b0 j. \u0161.","kind":"parallel"},"geometry":{"type":"LineString","coordinates":[[-180,-30],[-178,-30],[-176,-30],[-174,-30],[-172,-30],[-170,-30],[-168,-30],[-166,-30],[-164,-30],[-162,-30],[-160,-30],[-158,-30],[-156,-30],[-154,-30],[-152,-30],[-150,-30],[-148,-30],[-146,-30],[-144,-30],[-142,-30],[-140,-30],[-138,-30],[-136,-30],[-134,-30],[-132,-30],[-130,-30],[-128,-30],[-126,-30],[-124,-30],[-122,-30],[-120,-30],[-118,-30],[-116,-30],[-114,-30],[-112,-30],[-110,-30],[-108,-30],[-106,-30],[-104,-30],[-102,-30],[-100,-30],[-98,-30],[-96,-30],[-94,-30],[-92,-30],[-90,-30],[-88,-30],[-86,-30],[-84,-30],[-82,-30],[-80,-30],[-78,-30],[-76,-30],[-74,-30],[-72,-30],[-70,-30],[-68,-30],[-66,-30],[-64,-30],[-62,-30],[-60,-30],[-58,-30],[-56,-30],[-54,-30],[-52,-30],[-50,-30],[-48,-30],[-46,-30],[-44,-30],[-42,-30],[-40,-30],[-38,-30],[-36,-30],[-34,-30],[-32,-30],[-30,-30],[-28,-30],[-26,-30],[-24,-30],[-22,-30],[-20,-30],[-18,-30],[-16,-30],[-14,-30],[-12,-30],[-10,-30],[-8,-30],[-6,-30],[-4,-30],[-2,-30],[0,-30],[2,-30],[4,-30],[6,-30],[8,-30],[10,-30],[12,-30],[14,-30],[16,-30],[18,-30],[20,-30],[22,-30],[24,-30],[26,-30],[28,-30],[30,-30],[32,-30],[34,-30],[36,-30],[38,-30],[40,-30],[42,-30],[44,-30],[46,-30],[48,-30],[50,-30],[52,-30],[54,-30],[56,-30],[58,-30],[60,-30],[62,-30],[64,-30],[66,-30],[68,-30],[70,-30],[72,-30],[74,-30],[76,-30],[78,-30],[80,-30],[82,-30],[84,-30],[86,-30],[88,-30],[90,-30],[92,-30],[94,-30],[96,-30],[98,-30],[100,-30],[102,-30],[104,-30],[106,-30],[108,-30],[110,-30],[112,-30],[114,-30],[116,-30],[118,-30],[120,-30],[122,-30],[124,-30],[126,-30],[128,-30],[130,-30],[132,-30],[134,-30],[136,-30],[138,-30],[140,-30],[142,-30],[144,-30],[146,-30],[148,-30],[150,-30],[152,-30],[154,-30],[156,-30],[158,-30],[160,-30],[162,-30],[164,-30],[166,-30],[168,-30],[170,-30],[172,-30],[174,-30],[176,-30],[178,-30],[180,-30]]}},{"type":"Feature","properties":{"grid_id":"parallel--15","atlas_label":"15\u00b0 j. \u0161.","kind":"parallel"},"geometry":{"type":"LineString","coordinates":[[-180,-15],[-178,-15],[-176,-15],[-174,-15],[-172,-15],[-170,-15],[-168,-15],[-166,-15],[-164,-15],[-162,-15],[-160,-15],[-158,-15],[-156,-15],[-154,-15],[-152,-15],[-150,-15],[-148,-15],[-146,-15],[-144,-15],[-142,-15],[-140,-15],[-138,-15],[-136,-15],[-134,-15],[-132,-15],[-130,-15],[-128,-15],[-126,-15],[-124,-15],[-122,-15],[-120,-15],[-118,-15],[-116,-15],[-114,-15],[-112,-15],[-110,-15],[-108,-15],[-106,-15],[-104,-15],[-102,-15],[-100,-15],[-98,-15],[-96,-15],[-94,-15],[-92,-15],[-90,-15],[-88,-15],[-86,-15],[-84,-15],[-82,-15],[-80,-15],[-78,-15],[-76,-15],[-74,-15],[-72,-15],[-70,-15],[-68,-15],[-66,-15],[-64,-15],[-62,-15],[-60,-15],[-58,-15],[-56,-15],[-54,-15],[-52,-15],[-50,-15],[-48,-15],[-46,-15],[-44,-15],[-42,-15],[-40,-15],[-38,-15],[-36,-15],[-34,-15],[-32,-15],[-30,-15],[-28,-15],[-26,-15],[-24,-15],[-22,-15],[-20,-15],[-18,-15],[-16,-15],[-14,-15],[-12,-15],[-10,-15],[-8,-15],[-6,-15],[-4,-15],[-2,-15],[0,-15],[2,-15],[4,-15],[6,-15],[8,-15],[10,-15],[12,-15],[14,-15],[16,-15],[18,-15],[20,-15],[22,-15],[24,-15],[26,-15],[28,-15],[30,-15],[32,-15],[34,-15],[36,-15],[38,-15],[40,-15],[42,-15],[44,-15],[46,-15],[48,-15],[50,-15],[52,-15],[54,-15],[56,-15],[58,-15],[60,-15],[62,-15],[64,-15],[66,-15],[68,-15],[70,-15],[72,-15],[74,-15],[76,-15],[78,-15],[80,-15],[82,-15],[84,-15],[86,-15],[88,-15],[90,-15],[92,-15],[94,-15],[96,-15],[98,-15],[100,-15],[102,-15],[104,-15],[106,-15],[108,-15],[110,-15],[112,-15],[114,-15],[116,-15],[118,-15],[120,-15],[122,-15],[124,-15],[126,-15],[128,-15],[130,-15],[132,-15],[134,-15],[136,-15],[138,-15],[140,-15],[142,-15],[144,-15],[146,-15],[148,-15],[150,-15],[152,-15],[154,-15],[156,-15],[158,-15],[160,-15],[162,-15],[164,-15],[166,-15],[168,-15],[170,-15],[172,-15],[174,-15],[176,-15],[178,-15],[180,-15]]}},{"type":"Feature","properties":{"grid_id":"parallel-15","atlas_label":"15\u00b0 s. \u0161.","kind":"parallel"},"geometry":{"type":"LineString","coordinates":[[-180,15],[-178,15],[-176,15],[-174,15],[-172,15],[-170,15],[-168,15],[-166,15],[-164,15],[-162,15],[-160,15],[-158,15],[-156,15],[-154,15],[-152,15],[-150,15],[-148,15],[-146,15],[-144,15],[-142,15],[-140,15],[-138,15],[-136,15],[-134,15],[-132,15],[-130,15],[-128,15],[-126,15],[-124,15],[-122,15],[-120,15],[-118,15],[-116,15],[-114,15],[-112,15],[-110,15],[-108,15],[-106,15],[-104,15],[-102,15],[-100,15],[-98,15],[-96,15],[-94,15],[-92,15],[-90,15],[-88,15],[-86,15],[-84,15],[-82,15],[-80,15],[-78,15],[-76,15],[-74,15],[-72,15],[-70,15],[-68,15],[-66,15],[-64,15],[-62,15],[-60,15],[-58,15],[-56,15],[-54,15],[-52,15],[-50,15],[-48,15],[-46,15],[-44,15],[-42,15],[-40,15],[-38,15],[-36,15],[-34,15],[-32,15],[-30,15],[-28,15],[-26,15],[-24,15],[-22,15],[-20,15],[-18,15],[-16,15],[-14,15],[-12,15],[-10,15],[-8,15],[-6,15],[-4,15],[-2,15],[0,15],[2,15],[4,15],[6,15],[8,15],[10,15],[12,15],[14,15],[16,15],[18,15],[20,15],[22,15],[24,15],[26,15],[28,15],[30,15],[32,15],[34,15],[36,15],[38,15],[40,15],[42,15],[44,15],[46,15],[48,15],[50,15],[52,15],[54,15],[56,15],[58,15],[60,15],[62,15],[64,15],[66,15],[68,15],[70,15],[72,15],[74,15],[76,15],[78,15],[80,15],[82,15],[84,15],[86,15],[88,15],[90,15],[92,15],[94,15],[96,15],[98,15],[100,15],[102,15],[104,15],[106,15],[108,15],[110,15],[112,15],[114,15],[116,15],[118,15],[120,15],[122,15],[124,15],[126,15],[128,15],[130,15],[132,15],[134,15],[136,15],[138,15],[140,15],[142,15],[144,15],[146,15],[148,15],[150,15],[152,15],[154,15],[156,15],[158,15],[160,15],[162,15],[164,15],[166,15],[168,15],[170,15],[172,15],[174,15],[176,15],[178,15],[180,15]]}},{"type":"Feature","properties":{"grid_id":"parallel-30","atlas_label":"30\u00b0 s. \u0161.","kind":"parallel"},"geometry":{"type":"LineString","coordinates":[[-180,30],[-178,30],[-176,30],[-174,30],[-172,30],[-170,30],[-168,30],[-166,30],[-164,30],[-162,30],[-160,30],[-158,30],[-156,30],[-154,30],[-152,30],[-150,30],[-148,30],[-146,30],[-144,30],[-142,30],[-140,30],[-138,30],[-136,30],[-134,30],[-132,30],[-130,30],[-128,30],[-126,30],[-124,30],[-122,30],[-120,30],[-118,30],[-116,30],[-114,30],[-112,30],[-110,30],[-108,30],[-106,30],[-104,30],[-102,30],[-100,30],[-98,30],[-96,30],[-94,30],[-92,30],[-90,30],[-88,30],[-86,30],[-84,30],[-82,30],[-80,30],[-78,30],[-76,30],[-74,30],[-72,30],[-70,30],[-68,30],[-66,30],[-64,30],[-62,30],[-60,30],[-58,30],[-56,30],[-54,30],[-52,30],[-50,30],[-48,30],[-46,30],[-44,30],[-42,30],[-40,30],[-38,30],[-36,30],[-34,30],[-32,30],[-30,30],[-28,30],[-26,30],[-24,30],[-22,30],[-20,30],[-18,30],[-16,30],[-14,30],[-12,30],[-10,30],[-8,30],[-6,30],[-4,30],[-2,30],[0,30],[2,30],[4,30],[6,30],[8,30],[10,30],[12,30],[14,30],[16,30],[18,30],[20,30],[22,30],[24,30],[26,30],[28,30],[30,30],[32,30],[34,30],[36,30],[38,30],[40,30],[42,30],[44,30],[46,30],[48,30],[50,30],[52,30],[54,30],[56,30],[58,30],[60,30],[62,30],[64,30],[66,30],[68,30],[70,30],[72,30],[74,30],[76,30],[78,30],[80,30],[82,30],[84,30],[86,30],[88,30],[90,30],[92,30],[94,30],[96,30],[98,30],[100,30],[102,30],[104,30],[106,30],[108,30],[110,30],[112,30],[114,30],[116,30],[118,30],[120,30],[122,30],[124,30],[126,30],[128,30],[130,30],[132,30],[134,30],[136,30],[138,30],[140,30],[142,30],[144,30],[146,30],[148,30],[150,30],[152,30],[154,30],[156,30],[158,30],[160,30],[162,30],[164,30],[166,30],[168,30],[170,30],[172,30],[174,30],[176,30],[178,30],[180,30]]}},{"type":"Feature","properties":{"grid_id":"parallel-45","atlas_label":"45\u00b0 s. \u0161.","kind":"parallel"},"geometry":{"type":"LineString","coordinates":[[-180,45],[-178,45],[-176,45],[-174,45],[-172,45],[-170,45],[-168,45],[-166,45],[-164,45],[-162,45],[-160,45],[-158,45],[-156,45],[-154,45],[-152,45],[-150,45],[-148,45],[-146,45],[-144,45],[-142,45],[-140,45],[-138,45],[-136,45],[-134,45],[-132,45],[-130,45],[-128,45],[-126,45],[-124,45],[-122,45],[-120,45],[-118,45],[-116,45],[-114,45],[-112,45],[-110,45],[-108,45],[-106,45],[-104,45],[-102,45],[-100,45],[-98,45],[-96,45],[-94,45],[-92,45],[-90,45],[-88,45],[-86,45],[-84,45],[-82,45],[-80,45],[-78,45],[-76,45],[-74,45],[-72,45],[-70,45],[-68,45],[-66,45],[-64,45],[-62,45],[-60,45],[-58,45],[-56,45],[-54,45],[-52,45],[-50,45],[-48,45],[-46,45],[-44,45],[-42,45],[-40,45],[-38,45],[-36,45],[-34,45],[-32,45],[-30,45],[-28,45],[-26,45],[-24,45],[-22,45],[-20,45],[-18,45],[-16,45],[-14,45],[-12,45],[-10,45],[-8,45],[-6,45],[-4,45],[-2,45],[0,45],[2,45],[4,45],[6,45],[8,45],[10,45],[12,45],[14,45],[16,45],[18,45],[20,45],[22,45],[24,45],[26,45],[28,45],[30,45],[32,45],[34,45],[36,45],[38,45],[40,45],[42,45],[44,45],[46,45],[48,45],[50,45],[52,45],[54,45],[56,45],[58,45],[60,45],[62,45],[64,45],[66,45],[68,45],[70,45],[72,45],[74,45],[76,45],[78,45],[80,45],[82,45],[84,45],[86,45],[88,45],[90,45],[92,45],[94,45],[96,45],[98,45],[100,45],[102,45],[104,45],[106,45],[108,45],[110,45],[112,45],[114,45],[116,45],[118,45],[120,45],[122,45],[124,45],[126,45],[128,45],[130,45],[132,45],[134,45],[136,45],[138,45],[140,45],[142,45],[144,45],[146,45],[148,45],[150,45],[152,45],[154,45],[156,45],[158,45],[160,45],[162,45],[164,45],[166,45],[168,45],[170,45],[172,45],[174,45],[176,45],[178,45],[180,45]]}},{"type":"Feature","properties":{"grid_id":"parallel-60","atlas_label":"60\u00b0 s. \u0161.","kind":"parallel"},"geometry":{"type":"LineString","coordinates":[[-180,60],[-178,60],[-176,60],[-174,60],[-172,60],[-170,60],[-168,60],[-166,60],[-164,60],[-162,60],[-160,60],[-158,60],[-156,60],[-154,60],[-152,60],[-150,60],[-148,60],[-146,60],[-144,60],[-142,60],[-140,60],[-138,60],[-136,60],[-134,60],[-132,60],[-130,60],[-128,60],[-126,60],[-124,60],[-122,60],[-120,60],[-118,60],[-116,60],[-114,60],[-112,60],[-110,60],[-108,60],[-106,60],[-104,60],[-102,60],[-100,60],[-98,60],[-96,60],[-94,60],[-92,60],[-90,60],[-88,60],[-86,60],[-84,60],[-82,60],[-80,60],[-78,60],[-76,60],[-74,60],[-72,60],[-70,60],[-68,60],[-66,60],[-64,60],[-62,60],[-60,60],[-58,60],[-56,60],[-54,60],[-52,60],[-50,60],[-48,60],[-46,60],[-44,60],[-42,60],[-40,60],[-38,60],[-36,60],[-34,60],[-32,60],[-30,60],[-28,60],[-26,60],[-24,60],[-22,60],[-20,60],[-18,60],[-16,60],[-14,60],[-12,60],[-10,60],[-8,60],[-6,60],[-4,60],[-2,60],[0,60],[2,60],[4,60],[6,60],[8,60],[10,60],[12,60],[14,60],[16,60],[18,60],[20,60],[22,60],[24,60],[26,60],[28,60],[30,60],[32,60],[34,60],[36,60],[38,60],[40,60],[42,60],[44,60],[46,60],[48,60],[50,60],[52,60],[54,60],[56,60],[58,60],[60,60],[62,60],[64,60],[66,60],[68,60],[70,60],[72,60],[74,60],[76,60],[78,60],[80,60],[82,60],[84,60],[86,60],[88,60],[90,60],[92,60],[94,60],[96,60],[98,60],[100,60],[102,60],[104,60],[106,60],[108,60],[110,60],[112,60],[114,60],[116,60],[118,60],[120,60],[122,60],[124,60],[126,60],[128,60],[130,60],[132,60],[134,60],[136,60],[138,60],[140,60],[142,60],[144,60],[146,60],[148,60],[150,60],[152,60],[154,60],[156,60],[158,60],[160,60],[162,60],[164,60],[166,60],[168,60],[170,60],[172,60],[174,60],[176,60],[178,60],[180,60]]}},{"type":"Feature","properties":{"grid_id":"meridian-0","atlas_label":"nult\u00fd poledn\u00edk","kind":"prime-meridian"},"geometry":{"type":"LineString","coordinates":[[0,-80],[0,-78],[0,-76],[0,-74],[0,-72],[0,-70],[0,-68],[0,-66],[0,-64],[0,-62],[0,-60],[0,-58],[0,-56],[0,-54],[0,-52],[0,-50],[0,-48],[0,-46],[0,-44],[0,-42],[0,-40],[0,-38],[0,-36],[0,-34],[0,-32],[0,-30],[0,-28],[0,-26],[0,-24],[0,-22],[0,-20],[0,-18],[0,-16],[0,-14],[0,-12],[0,-10],[0,-8],[0,-6],[0,-4],[0,-2],[0,0],[0,2],[0,4],[0,6],[0,8],[0,10],[0,12],[0,14],[0,16],[0,18],[0,20],[0,22],[0,24],[0,26],[0,28],[0,30],[0,32],[0,34],[0,36],[0,38],[0,40],[0,42],[0,44],[0,46],[0,48],[0,50],[0,52],[0,54],[0,56],[0,58],[0,60],[0,62],[0,64],[0,66],[0,68],[0,70],[0,72],[0,74],[0,76],[0,78],[0,80]]}},{"type":"Feature","properties":{"grid_id":"meridian-180","atlas_label":"180. poledn\u00edk","kind":"date-line"},"geometry":{"type":"LineString","coordinates":[[180,-80],[180,-78],[180,-76],[180,-74],[180,-72],[180,-70],[180,-68],[180,-66],[180,-64],[180,-62],[180,-60],[180,-58],[180,-56],[180,-54],[180,-52],[180,-50],[180,-48],[180,-46],[180,-44],[180,-42],[180,-40],[180,-38],[180,-36],[180,-34],[180,-32],[180,-30],[180,-28],[180,-26],[180,-24],[180,-22],[180,-20],[180,-18],[180,-16],[180,-14],[180,-12],[180,-10],[180,-8],[180,-6],[180,-4],[180,-2],[180,0],[180,2],[180,4],[180,6],[180,8],[180,10],[180,12],[180,14],[180,16],[180,18],[180,20],[180,22],[180,24],[180,26],[180,28],[180,30],[180,32],[180,34],[180,36],[180,38],[180,40],[180,42],[180,44],[180,46],[180,48],[180,50],[180,52],[180,54],[180,56],[180,58],[180,60],[180,62],[180,64],[180,66],[180,68],[180,70],[180,72],[180,74],[180,76],[180,78],[180,80]]}},{"type":"Feature","properties":{"grid_id":"meridian--180","atlas_label":"180. poledn\u00edk","kind":"date-line"},"geometry":{"type":"LineString","coordinates":[[-180,-80],[-180,-78],[-180,-76],[-180,-74],[-180,-72],[-180,-70],[-180,-68],[-180,-66],[-180,-64],[-180,-62],[-180,-60],[-180,-58],[-180,-56],[-180,-54],[-180,-52],[-180,-50],[-180,-48],[-180,-46],[-180,-44],[-180,-42],[-180,-40],[-180,-38],[-180,-36],[-180,-34],[-180,-32],[-180,-30],[-180,-28],[-180,-26],[-180,-24],[-180,-22],[-180,-20],[-180,-18],[-180,-16],[-180,-14],[-180,-12],[-180,-10],[-180,-8],[-180,-6],[-180,-4],[-180,-2],[-180,0],[-180,2],[-180,4],[-180,6],[-180,8],[-180,10],[-180,12],[-180,14],[-180,16],[-180,18],[-180,20],[-180,22],[-180,24],[-180,26],[-180,28],[-180,30],[-180,32],[-180,34],[-180,36],[-180,38],[-180,40],[-180,42],[-180,44],[-180,46],[-180,48],[-180,50],[-180,52],[-180,54],[-180,56],[-180,58],[-180,60],[-180,62],[-180,64],[-180,66],[-180,68],[-180,70],[-180,72],[-180,74],[-180,76],[-180,78],[-180,80]]}},{"type":"Feature","properties":{"grid_id":"meridian-30","atlas_label":"30\u00b0 v. d.","kind":"meridian"},"geometry":{"type":"LineString","coordinates":[[30,-80],[30,-78],[30,-76],[30,-74],[30,-72],[30,-70],[30,-68],[30,-66],[30,-64],[30,-62],[30,-60],[30,-58],[30,-56],[30,-54],[30,-52],[30,-50],[30,-48],[30,-46],[30,-44],[30,-42],[30,-40],[30,-38],[30,-36],[30,-34],[30,-32],[30,-30],[30,-28],[30,-26],[30,-24],[30,-22],[30,-20],[30,-18],[30,-16],[30,-14],[30,-12],[30,-10],[30,-8],[30,-6],[30,-4],[30,-2],[30,0],[30,2],[30,4],[30,6],[30,8],[30,10],[30,12],[30,14],[30,16],[30,18],[30,20],[30,22],[30,24],[30,26],[30,28],[30,30],[30,32],[30,34],[30,36],[30,38],[30,40],[30,42],[30,44],[30,46],[30,48],[30,50],[30,52],[30,54],[30,56],[30,58],[30,60],[30,62],[30,64],[30,66],[30,68],[30,70],[30,72],[30,74],[30,76],[30,78],[30,80]]}},{"type":"Feature","properties":{"grid_id":"meridian-60","atlas_label":"60\u00b0 v. d.","kind":"meridian"},"geometry":{"type":"LineString","coordinates":[[60,-80],[60,-78],[60,-76],[60,-74],[60,-72],[60,-70],[60,-68],[60,-66],[60,-64],[60,-62],[60,-60],[60,-58],[60,-56],[60,-54],[60,-52],[60,-50],[60,-48],[60,-46],[60,-44],[60,-42],[60,-40],[60,-38],[60,-36],[60,-34],[60,-32],[60,-30],[60,-28],[60,-26],[60,-24],[60,-22],[60,-20],[60,-18],[60,-16],[60,-14],[60,-12],[60,-10],[60,-8],[60,-6],[60,-4],[60,-2],[60,0],[60,2],[60,4],[60,6],[60,8],[60,10],[60,12],[60,14],[60,16],[60,18],[60,20],[60,22],[60,24],[60,26],[60,28],[60,30],[60,32],[60,34],[60,36],[60,38],[60,40],[60,42],[60,44],[60,46],[60,48],[60,50],[60,52],[60,54],[60,56],[60,58],[60,60],[60,62],[60,64],[60,66],[60,68],[60,70],[60,72],[60,74],[60,76],[60,78],[60,80]]}},{"type":"Feature","properties":{"grid_id":"meridian-90","atlas_label":"90\u00b0 v. d.","kind":"meridian"},"geometry":{"type":"LineString","coordinates":[[90,-80],[90,-78],[90,-76],[90,-74],[90,-72],[90,-70],[90,-68],[90,-66],[90,-64],[90,-62],[90,-60],[90,-58],[90,-56],[90,-54],[90,-52],[90,-50],[90,-48],[90,-46],[90,-44],[90,-42],[90,-40],[90,-38],[90,-36],[90,-34],[90,-32],[90,-30],[90,-28],[90,-26],[90,-24],[90,-22],[90,-20],[90,-18],[90,-16],[90,-14],[90,-12],[90,-10],[90,-8],[90,-6],[90,-4],[90,-2],[90,0],[90,2],[90,4],[90,6],[90,8],[90,10],[90,12],[90,14],[90,16],[90,18],[90,20],[90,22],[90,24],[90,26],[90,28],[90,30],[90,32],[90,34],[90,36],[90,38],[90,40],[90,42],[90,44],[90,46],[90,48],[90,50],[90,52],[90,54],[90,56],[90,58],[90,60],[90,62],[90,64],[90,66],[90,68],[90,70],[90,72],[90,74],[90,76],[90,78],[90,80]]}},{"type":"Feature","properties":{"grid_id":"meridian-120","atlas_label":"120\u00b0 v. d.","kind":"meridian"},"geometry":{"type":"LineString","coordinates":[[120,-80],[120,-78],[120,-76],[120,-74],[120,-72],[120,-70],[120,-68],[120,-66],[120,-64],[120,-62],[120,-60],[120,-58],[120,-56],[120,-54],[120,-52],[120,-50],[120,-48],[120,-46],[120,-44],[120,-42],[120,-40],[120,-38],[120,-36],[120,-34],[120,-32],[120,-30],[120,-28],[120,-26],[120,-24],[120,-22],[120,-20],[120,-18],[120,-16],[120,-14],[120,-12],[120,-10],[120,-8],[120,-6],[120,-4],[120,-2],[120,0],[120,2],[120,4],[120,6],[120,8],[120,10],[120,12],[120,14],[120,16],[120,18],[120,20],[120,22],[120,24],[120,26],[120,28],[120,30],[120,32],[120,34],[120,36],[120,38],[120,40],[120,42],[120,44],[120,46],[120,48],[120,50],[120,52],[120,54],[120,56],[120,58],[120,60],[120,62],[120,64],[120,66],[120,68],[120,70],[120,72],[120,74],[120,76],[120,78],[120,80]]}},{"type":"Feature","properties":{"grid_id":"meridian-150","atlas_label":"150\u00b0 v. d.","kind":"meridian"},"geometry":{"type":"LineString","coordinates":[[150,-80],[150,-78],[150,-76],[150,-74],[150,-72],[150,-70],[150,-68],[150,-66],[150,-64],[150,-62],[150,-60],[150,-58],[150,-56],[150,-54],[150,-52],[150,-50],[150,-48],[150,-46],[150,-44],[150,-42],[150,-40],[150,-38],[150,-36],[150,-34],[150,-32],[150,-30],[150,-28],[150,-26],[150,-24],[150,-22],[150,-20],[150,-18],[150,-16],[150,-14],[150,-12],[150,-10],[150,-8],[150,-6],[150,-4],[150,-2],[150,0],[150,2],[150,4],[150,6],[150,8],[150,10],[150,12],[150,14],[150,16],[150,18],[150,20],[150,22],[150,24],[150,26],[150,28],[150,30],[150,32],[150,34],[150,36],[150,38],[150,40],[150,42],[150,44],[150,46],[150,48],[150,50],[150,52],[150,54],[150,56],[150,58],[150,60],[150,62],[150,64],[150,66],[150,68],[150,70],[150,72],[150,74],[150,76],[150,78],[150,80]]}},{"type":"Feature","properties":{"grid_id":"meridian--30","atlas_label":"30\u00b0 z. d.","kind":"meridian"},"geometry":{"type":"LineString","coordinates":[[-30,-80],[-30,-78],[-30,-76],[-30,-74],[-30,-72],[-30,-70],[-30,-68],[-30,-66],[-30,-64],[-30,-62],[-30,-60],[-30,-58],[-30,-56],[-30,-54],[-30,-52],[-30,-50],[-30,-48],[-30,-46],[-30,-44],[-30,-42],[-30,-40],[-30,-38],[-30,-36],[-30,-34],[-30,-32],[-30,-30],[-30,-28],[-30,-26],[-30,-24],[-30,-22],[-30,-20],[-30,-18],[-30,-16],[-30,-14],[-30,-12],[-30,-10],[-30,-8],[-30,-6],[-30,-4],[-30,-2],[-30,0],[-30,2],[-30,4],[-30,6],[-30,8],[-30,10],[-30,12],[-30,14],[-30,16],[-30,18],[-30,20],[-30,22],[-30,24],[-30,26],[-30,28],[-30,30],[-30,32],[-30,34],[-30,36],[-30,38],[-30,40],[-30,42],[-30,44],[-30,46],[-30,48],[-30,50],[-30,52],[-30,54],[-30,56],[-30,58],[-30,60],[-30,62],[-30,64],[-30,66],[-30,68],[-30,70],[-30,72],[-30,74],[-30,76],[-30,78],[-30,80]]}},{"type":"Feature","properties":{"grid_id":"meridian--60","atlas_label":"60\u00b0 z. d.","kind":"meridian"},"geometry":{"type":"LineString","coordinates":[[-60,-80],[-60,-78],[-60,-76],[-60,-74],[-60,-72],[-60,-70],[-60,-68],[-60,-66],[-60,-64],[-60,-62],[-60,-60],[-60,-58],[-60,-56],[-60,-54],[-60,-52],[-60,-50],[-60,-48],[-60,-46],[-60,-44],[-60,-42],[-60,-40],[-60,-38],[-60,-36],[-60,-34],[-60,-32],[-60,-30],[-60,-28],[-60,-26],[-60,-24],[-60,-22],[-60,-20],[-60,-18],[-60,-16],[-60,-14],[-60,-12],[-60,-10],[-60,-8],[-60,-6],[-60,-4],[-60,-2],[-60,0],[-60,2],[-60,4],[-60,6],[-60,8],[-60,10],[-60,12],[-60,14],[-60,16],[-60,18],[-60,20],[-60,22],[-60,24],[-60,26],[-60,28],[-60,30],[-60,32],[-60,34],[-60,36],[-60,38],[-60,40],[-60,42],[-60,44],[-60,46],[-60,48],[-60,50],[-60,52],[-60,54],[-60,56],[-60,58],[-60,60],[-60,62],[-60,64],[-60,66],[-60,68],[-60,70],[-60,72],[-60,74],[-60,76],[-60,78],[-60,80]]}},{"type":"Feature","properties":{"grid_id":"meridian--90","atlas_label":"90\u00b0 z. d.","kind":"meridian"},"geometry":{"type":"LineString","coordinates":[[-90,-80],[-90,-78],[-90,-76],[-90,-74],[-90,-72],[-90,-70],[-90,-68],[-90,-66],[-90,-64],[-90,-62],[-90,-60],[-90,-58],[-90,-56],[-90,-54],[-90,-52],[-90,-50],[-90,-48],[-90,-46],[-90,-44],[-90,-42],[-90,-40],[-90,-38],[-90,-36],[-90,-34],[-90,-32],[-90,-30],[-90,-28],[-90,-26],[-90,-24],[-90,-22],[-90,-20],[-90,-18],[-90,-16],[-90,-14],[-90,-12],[-90,-10],[-90,-8],[-90,-6],[-90,-4],[-90,-2],[-90,0],[-90,2],[-90,4],[-90,6],[-90,8],[-90,10],[-90,12],[-90,14],[-90,16],[-90,18],[-90,20],[-90,22],[-90,24],[-90,26],[-90,28],[-90,30],[-90,32],[-90,34],[-90,36],[-90,38],[-90,40],[-90,42],[-90,44],[-90,46],[-90,48],[-90,50],[-90,52],[-90,54],[-90,56],[-90,58],[-90,60],[-90,62],[-90,64],[-90,66],[-90,68],[-90,70],[-90,72],[-90,74],[-90,76],[-90,78],[-90,80]]}},{"type":"Feature","properties":{"grid_id":"meridian--120","atlas_label":"120\u00b0 z. d.","kind":"meridian"},"geometry":{"type":"LineString","coordinates":[[-120,-80],[-120,-78],[-120,-76],[-120,-74],[-120,-72],[-120,-70],[-120,-68],[-120,-66],[-120,-64],[-120,-62],[-120,-60],[-120,-58],[-120,-56],[-120,-54],[-120,-52],[-120,-50],[-120,-48],[-120,-46],[-120,-44],[-120,-42],[-120,-40],[-120,-38],[-120,-36],[-120,-34],[-120,-32],[-120,-30],[-120,-28],[-120,-26],[-120,-24],[-120,-22],[-120,-20],[-120,-18],[-120,-16],[-120,-14],[-120,-12],[-120,-10],[-120,-8],[-120,-6],[-120,-4],[-120,-2],[-120,0],[-120,2],[-120,4],[-120,6],[-120,8],[-120,10],[-120,12],[-120,14],[-120,16],[-120,18],[-120,20],[-120,22],[-120,24],[-120,26],[-120,28],[-120,30],[-120,32],[-120,34],[-120,36],[-120,38],[-120,40],[-120,42],[-120,44],[-120,46],[-120,48],[-120,50],[-120,52],[-120,54],[-120,56],[-120,58],[-120,60],[-120,62],[-120,64],[-120,66],[-120,68],[-120,70],[-120,72],[-120,74],[-120,76],[-120,78],[-120,80]]}},{"type":"Feature","properties":{"grid_id":"meridian--150","atlas_label":"150\u00b0 z. d.","kind":"meridian"},"geometry":{"type":"LineString","coordinates":[[-150,-80],[-150,-78],[-150,-76],[-150,-74],[-150,-72],[-150,-70],[-150,-68],[-150,-66],[-150,-64],[-150,-62],[-150,-60],[-150,-58],[-150,-56],[-150,-54],[-150,-52],[-150,-50],[-150,-48],[-150,-46],[-150,-44],[-150,-42],[-150,-40],[-150,-38],[-150,-36],[-150,-34],[-150,-32],[-150,-30],[-150,-28],[-150,-26],[-150,-24],[-150,-22],[-150,-20],[-150,-18],[-150,-16],[-150,-14],[-150,-12],[-150,-10],[-150,-8],[-150,-6],[-150,-4],[-150,-2],[-150,0],[-150,2],[-150,4],[-150,6],[-150,8],[-150,10],[-150,12],[-150,14],[-150,16],[-150,18],[-150,20],[-150,22],[-150,24],[-150,26],[-150,28],[-150,30],[-150,32],[-150,34],[-150,36],[-150,38],[-150,40],[-150,42],[-150,44],[-150,46],[-150,48],[-150,50],[-150,52],[-150,54],[-150,56],[-150,58],[-150,60],[-150,62],[-150,64],[-150,66],[-150,68],[-150,70],[-150,72],[-150,74],[-150,76],[-150,78],[-150,80]]}}]}